#cP2022  2 27  0  0  0.00000000     576 d+D   IGb14 EXT AIUB
## 2199      0.00000000   300.00000000 59637 0.0000000000000
+   76   G01G02G03G05G06G07G08G09G10G11G12G13G14G15G16G17G18
+        G19G20G21G22G23G24G25G26G27G28G29G30G31R01R02R03R04
+        R05R07R08R09R11R12R13R14R15R17R18R19R20R21R22R24E01
+        E02E03E04E05E07E08E09E10E11E12E13E14E15E18E19E21E24
+        E25E26E27E30E31E33E34E36  0  0  0  0  0  0  0  0  0
++         6  7  6  7  7  7  6  6  5  8  7  6  7  7  7  7  8
++         6  7  7  7  8  7  5  6  6  7  7  5  7  9  7  8  8
++         8  8  8  8  6  6  7  7  7  8  7  9  9  8  8  8  6
++         6  6  6  6  6  6  6  7  6  7  6  7  6  6  6  6  6
++         6  6  6  6  6  7  6  6  0  0  0  0  0  0  0  0  0
%c M  cc GPS ccc cccc cccc cccc cccc ccccc ccccc ccccc ccccc
%c cc cc ccc ccc cccc cccc cccc cccc ccccc ccccc ccccc ccccc
%f  1.2500000  1.025000000  0.00000000000  0.000000000000000
%f  0.0000000  0.000000000  0.00000000000  0.000000000000000
%i    0    0    0    0      0      0      0      0         0
%i    0    0    0    0      0      0      0      0         0
/* Center for Orbit Determination in Europe (CODE)          
/* Ultra-rapid GRE orbits starting year-day 22058 00 hour   
/* Observed/predicted: 24/24 hours (data used up to 058X)   
/* PCV:IGS14      OL/AL:FES2014b NONE     YN ORB:CoN CLK:BRD
*  2022  2 28  3 10  0.00000000
PG01  15963.653913  13417.689146 -16935.950596    420.656817               P   P
PG02   7112.961468 -14690.396649  21639.677640   -651.594114               P   P
PG03  13126.054217  22658.006673   4682.613707   -141.525788               P   P
PG05  -3555.599384 -24122.185173  10186.420849    -72.967025               P   P
PG06  22025.508699  -6301.542846  13574.713278    215.484961               P   P
PG07  25923.873745   6012.492912   3790.834228    313.234684               P   P
PG08  -1684.834686  21117.636539 -15825.815230    -57.909188               P   P
PG09  15707.587913   3688.051589  21033.689463   -352.194227               P   P
PG10 -15128.437232   2116.377515 -21612.877357   -332.774449               P   P
PG11   8829.290390 -13409.517885  21154.324353    -75.741738               P   P
PG12  -9727.417052 -24715.155918   1681.241347   -177.599979               P   P
PG13  10743.627600 -21645.505976 -10986.674889    268.858278               P   P
PG14  15774.071149  -1167.340929 -21350.189827    -88.849113               P   P
PG15  -1770.627827 -21168.875310 -16154.793129    -80.493034               P   P
PG16  -2152.643426  22591.432510  13134.584923   -474.911267               P   P
PG17  20419.089939 -10865.288793 -12669.277463    580.874646               P   P
PG18 -25777.025888  -5822.797261   3164.220740    230.700692               P   P
PG19  20480.859949 -15549.636582  -6504.915035    124.679787               P   P
PG20   2931.614907 -19668.808900  17723.717443    516.515086               P   P
PG21   6342.424309  14723.878896 -20616.447597    158.723307               P   P
PG22 -18854.981046  18285.772968  -2789.454932    220.164467               P   P
PG23 -17638.890835  -9659.827025 -17409.213055     -2.624574               P   P
PG24 -12264.268873 -14562.005252 -18971.713782    271.867754               P   P
PG25 -16641.579673 -16632.619415  12308.434950    291.655506               P   P
PG26  -9889.752267  13704.530295  20339.133517    186.877395               P   P
PG27 -11247.078256  22861.205385  -6926.130917    136.720347               P   P
PG28  11795.376186 -10345.684197 -20949.270346    390.985286               P   P
PG29 -13504.239069  -6698.341955  21827.647564   -485.551377               P   P
PG30  26166.068652   -201.687457  -5192.206540   -515.981241               P   P
PG31 -20753.421869   7648.912063  14912.277122   -166.738459               P   P
PR01  -2016.413567 -22494.088343 -11843.701076      7.142313               P   P
PR02  -9833.093585  -5623.099377 -22815.537630    511.024697               P   P
PR03 -11446.847036  13216.380939 -18502.012328     52.283121               P   P
PR04  -6608.371502  24310.223854  -3936.884424    129.721078               P   P
PR05   1767.555223  21976.633258  12820.937947     88.512714               P   P
PR07  11417.362149 -13923.340648  18131.398308     32.109930               P   P
PR08   6576.010099 -24351.231379   3953.927205    -63.763125               P   P
PR09  20946.377139  12121.101564  -8160.469740     41.809487               P   P
PR11    524.133761 -13065.148013 -21893.947583     44.717118               P   P
PR12 -14740.723313 -18529.317968  -9501.922405     17.299842               P   P
PR13 -20813.754087 -12922.502183   7093.091256    -18.824217               P   P
PR14 -14562.884136    952.551513  20922.411103     74.854651               P   P
PR15    -66.507945  13587.837139  21599.337571     97.899172               P   P
PR17 -23769.556818   9098.322623  -1924.099997    505.466718               P   P
PR18 -13890.183352  12763.390862 -17121.263575    108.751407               P   P
PR19   1841.474348  10235.532258 -23288.459807   -179.772596               P   P
PR20  20332.237297    927.810220 -15397.514946    -65.750973               P   P
PR21  23398.629510  -9540.946117   3416.566053   -281.465210               P   P
PR22  13300.016483 -12693.147342  17723.268188   -167.508382               P   P
PR24 -20813.143578   -398.924071  14765.570838     82.189050               P   P
PE01  -8369.363802 -26811.345315  -9368.244275   -587.501813               P   P
PE02   8483.032610  26802.484996   9218.593247    283.109188               P   P
PE03  -1784.142486  25270.202218  15317.323867   -532.334436               P   P
PE04 -13170.072416 -11163.375628 -24037.432529   -974.123986               P   P
PE05 -15975.564493  24784.006527  -2576.860289   -204.923367               P   P
PE07  20681.055915  -9879.271247  18734.804185   -643.473050               P   P
PE08  13342.870355  10650.921610  24183.107886   -487.025178               P   P
PE09 -20563.875093  10259.243430 -18658.347628   5345.166970               P   P
PE10 -28676.132287  -3500.150657   6443.658366   -497.773971               P   P
PE11 -29176.508305   3058.341829  -3865.630731   4349.309430               P   P
PE12 -23618.341112  -9413.838619  15140.730656   4737.603538               P   P
PE13  29308.618781  -2703.657988   3211.717551    426.899902               P   P
PE14 -20035.809119   3499.400190  15715.354155  -1761.188148               P   P
PE15  23565.260432   9364.330152 -15269.012459    760.683333               P   P
PE18  18853.179528   7763.249924 -23287.648100  -1740.964624               P   P
PE19   3897.606080 -26066.596891 -13473.042788   -510.336900               P   P
PE21   6586.320234 -18480.230957 -22173.827151   -719.723517               P   P
PE24 -19148.478166  -2374.476421  22438.337407  -1414.561692               P   P
PE25  -6799.068386  18260.086378  22278.723939   -565.124633               P   P
PE26  16883.541775 -13547.563238  20198.105099   -856.373783               P   P
PE27  18667.729614    908.922837 -22951.224403   -242.231402               P   P
PE30  19300.845283  20427.512254  -9271.223644   -309.536736               P   P
PE31 -19675.818209 -19622.988880  10215.679141   -492.823208               P   P
PE33  -3925.667004 -15869.846390  24682.921328   -459.020397               P   P
PE34   4211.793765  15839.431932 -24649.193131   -504.170644               P   P
PE36 -17794.313980  13101.747822 -19680.543637   -338.490210               P   P
EOF
